JCAT , SatcatLaunch_Tag Piece     , Type     , Name                        , PLName                      , LDate      , Parent      , SDate              , Primary, DDate              , Status Dest   , Owner       , State , Manufacturer, Bus              , Motor       , Mass     , DryMass   , TotMass  , Length, Diamete, Span   , Shape                    , ODate      , Perigee, Apogee, Inc   , OpOrbitOQU AltNames, STATUS, OBJECT_NAME             , OBJECT_ID , EPOCH                     , MEAN_MOTION, ECCENTRICITY, INCLINATION, RA_OF_ASC_NODE, ARG_OF_PERICENTER, MEAN_ANOMALY, EPHEMERIS_TYPE, CLASSIFICATION_TYPE, NORAD_CAT_ID, ELEMENT_SET_NO, REV_AT_EPOCH, BSTAR         , MEAN_MOTION_DOT, MEAN_MOTION_DDOT, LAST_UPDATED       , DATA_SOURCE               , TLE_LINE1                                                            , TLE_LINE2                                                            , N2YO_SAT_NAME              , TLE_FETCHED
36402, 36402 2010-007   2010-007C , P        , Kosmos-2460                 , Uragan-M No. 32L            , 2010 Mar  1, S36403      , 2010 Mar  2 0051   , Earth  , -                  , O      -      , KVR/IACG    , RU    , RESH        , Uragan           , -           , 1450     , 1200    ? , 1450     , 4.0   , 1.5    , 7.8    , Cyl + Ant + 2 Pan        , 2010 Mar  9, 19128  , 19287 , 64.77 , MEO    -   Glonass-, ACTIVE, COSMOS 2460 [GLONASS-M] , 2010-007C , 2025-10-02T07:13:21.544320,  2.13106243, 0.0002683   ,     65.5668,       323.1874,          233.3216,     308.5619,            0.0, U                  ,      36402.0,          999.0,      12123.0, 0.0           , -1.6e-07       , 0.0             , 2025-10-04 23:19:22, planet4589.org + Celestrak, 1 36402U 10007C   25275.30094380 -.00000016  00000-0  00000-0 0  9999, 2 36402  65.5668 323.1874 0002683 233.3216 308.5619  2.13106243121233, COSMOS 2460 (GLONASS)      , YES
36411, 36411 2010-008   2010-008A , P        , GOES 15                     , GOES P                      , 2010 Mar  4, S36412      , 2010 Mar  5 0418   , Earth  , 2023 Feb 28        , N      -      , NOAA        , US    , BOES        , HS-601           , R-4D?       , 3215     , 1543      , 3215     , 8.4   , 2.9    , 8.4    , Box + Pan + Ant          , 2010 Mar 18, 35778  , 35789 , 0.46  , GEO/S  -           , ACTIVE, EWS-G2 (GOES 15)        , 2010-008A , 2025-10-03T14:21:27.129024,  1.00272837, 0.00054384  ,      0.6267,        85.5167,          141.5963,      62.177 ,            0.0, U                  ,      36411.0,          999.0,       5706.0, 0.0           , 3.9e-07        , 0.0             , 2025-10-04 23:19:22, planet4589.org + Celestrak, 1 36411U 10008A   25277.43725078  .00000039  00000-0  00000+0 0  9994, 2 36411   0.6290  85.5041 0005509 142.4542   4.2087  1.00272842 57074, GOES 15                    , YES
36413, 36413 2010-009   2010-009A , P        , Yaogan Weixing 9            , Jianbing-8 01 zu 01 xing    , 2010 Mar  5, S36416      , 2010 Mar  5 0521?  , Earth  , -                  , O      -      , ZZB         , CN    , CAST        , JB-8             , -           , 500    ? , 500    ?  , 500    ? , 0.5  ?, 0.5  ? , 1.0  ? , Box + 2 Pan              , 2010 Mar  7, 1082   , 1098  , 63.41 , LEO/I  -           , ACTIVE, YAOGAN-9 01A            , 2010-009A , 2025-10-03T12:35:35.930688, 13.45618575, 0.05153157  ,     63.3677,       302.186 ,           19.7586,     342.262 ,            0.0, U                  ,      36413.0,          999.0,      76543.0, 0.00019307703 , 1.67e-06       , 0.0             , 2025-10-04 23:19:22, planet4589.org + Celestrak, 1 36413U 10009A   25276.52472142  .00000167  00000-0  19308-3 0  9994, 2 36413  63.3677 302.1860 0515316  19.7586 342.2620 13.45618575765437, YAOGAN 9A                  , YES
36414, 36414 2010-009   2010-009B , P        , Yaogan Weixing 9 fu xing yi , Jianbing-8 01 zu 02 xing    , 2010 Mar  5, S36416      , 2010 Mar  5 0530?  , Earth  , -                  , O      -      , ZZB         , CN    , CAST        , JB-8             , -           , 500    ? , 500    ?  , 500    ? , 0.5  ?, 0.5  ? , 1.0  ? , Box + 2 Pan              , 2010 Mar  7, 1084   , 1099  , 63.41 , LEO/I  -           , ACTIVE, YAOGAN-9 01B            , 2010-009B , 2025-10-03T12:08:27.979296, 13.45626462, 0.05160503  ,     63.3691,       301.8628,           18.9485,     342.9982,            0.0, U                  ,      36414.0,          999.0,      76520.0, 0.00019173629 , 1.65e-06       , 0.0             , 2025-10-04 23:19:22, planet4589.org + Celestrak, 1 36414U 10009B   25276.50587939  .00000165  00000-0  19174-3 0  9993, 2 36414  63.3691 301.8628 0516050  18.9485 342.9982 13.45626462765204, YAOGAN 9B                  , YES
36415, 36415 2010-009   2010-009C , P        , Yaogan Weixing 9 fu xing er , Jianbing-8 01 zu 03 xing    , 2010 Mar  5, S36416      , 2010 Mar  5 0530?  , Earth  , -                  , O      -      , ZZB         , CN    , CAST        , JB-8             , -           , 500    ? , 500    ?  , 500    ? , 0.5  ?, 0.5  ? , 1.0  ? , Box + 2 Pan              , 2010 Mar  7, 1085   , 1099  , 63.41 , LEO/I  -           , ACTIVE, YAOGAN-9 01C            , 2010-009C , 2025-10-03T10:19:34.180608, 13.45626933, 0.05167475  ,     63.3686,       302.5912,           19.2745,     342.7054,            0.0, U                  ,      36415.0,          999.0,      76535.0, 0.00019025208 , 1.64e-06       , 0.0             , 2025-10-04 23:19:22, planet4589.org + Celestrak, 1 36415U 10009C   25276.43025672  .00000164  00000-0  19025-3 0  9991, 2 36415  63.3686 302.5912 0516747  19.2745 342.7054 13.45626933765356, YAOGAN 9C                  , YES
36499, 36499 2010-010   2010-010A , P        , Echostar XIV                , Echostar 14                 , 2010 Mar 20, S36500      , 2010 Mar 21 0336   , Earth  , 2014 Mar  1        , N      -      , DISH        , US    , LOR         , SSL-1300         , R-4D-15-300 , 6379     , 3223      , 6379     , 5.6  ?, 2.8  ? , 31.0  ?, Box + 2 Pan              , 2010 Mar 27, 35760  , 35786 , 0.07  , GEO/D  -           , ACTIVE, ECHOSTAR 14             , 2010-010A , 2025-10-03T13:04:57.776160,  1.00271434, 0.00021236  ,      0.0172,       226.2389,          327.1876,     256.4362,            0.0, U                  ,      36499.0,          999.0,       4397.0, 0.0           , 1e-08          , 0.0             , 2025-10-04 23:19:22, planet4589.org + Celestrak, 1 36499U 10010A   25277.47614336  .00000001  00000-0  00000+0 0  9990, 2 36499   0.0168 230.0212 0002143 323.6889 232.2414  1.00271775 43989, ECHOSTAR 14                , YES
36508, 36508 2010-013   2010-013A , P        , CRYOSAT 2                   , Cryosat 2                   , 2010 Apr  8, S36509      , 2010 Apr  8 1413   , Earth  , -                  , O      -      , ESA         , I-ESA , EASF        , Flexbus          , AOCS 2x40mN , 720      , 684    ?  , 720      , 4.6   , 2.3    , 4.6    , Hex Cyl                  , 2010 Apr 10, 710    , 726   , 92.02 , LEO/P  -           , ACTIVE, CRYOSAT 2               , 2010-013A , 2025-10-03T15:07:32.212416, 14.519104  , 0.00027838  ,     92.0215,       215.2072,           88.3648,     271.7879,            0.0, U                  ,      36508.0,          999.0,      82085.0, 0.00013737944 , 5.56e-06       , 0.0             , 2025-10-04 23:19:22, planet4589.org + Celestrak, 1 36508U 10013A   25277.45726957  .00000460  00000-0  11338-3 0  9994, 2 36508  92.0216 215.4070 0002783  88.0709 272.0817 14.51910874820978, CRYOSAT 2                  , YES
36516, 36516 2010-016   2010-016A , P      O , SES-1                       , SES-1                       , 2010 Apr 24, S36517      , 2010 Apr 24 2017   , Earth  , 2010 May  9?       , N      -      , SESSL       , UK    , OSCD        , OSC Star 2.4     , BT-4        , 2561     , 1180    ? , 2561     , 3.2   , 2.3    , 22.0   , Box + 2 Pan              , 2010 May  3, 35664  , 35780 , 0.07  , GEO/D  -           , ACTIVE, SES-1                   , 2010-016A , 2025-10-03T13:10:04.784736,  1.00271727, 0.00025394  ,      0.0272,       289.2391,          254.5345,     285.2665,            0.0, U                  ,      36516.0,          999.0,       5646.0, 0.0           , -1.14e-06      , 0.0             , 2025-10-04 23:19:22, planet4589.org + Celestrak, 1 36516U 10016A   25277.47643384 -.00000114  00000-0  00000+0 0  9997, 2 36516   0.0256 290.2580 0002545 255.8999 257.7928  1.00271527 56461, SES 1                      , YES
36519, 36519 2010-017   2010-017A , P        , Kosmos-2463                 , Parus No. 207               , 2010 Apr 27, S36520      , 2010 Apr 27 0208   , Earth  , -                  , O      -      , VMFR        , RU    , POLK        , KAUR-1 11F627    , -           , 820      , 820       , 820      , 5.0   , 2.0    , 17.0  ?, Cyl + Ant                , 2010 Apr 29, 969    , 1020  , 82.96 , LEO/I  -   Tsiklon-, ACTIVE, COSMOS 2463             , 2010-017A , 2025-10-03T11:50:03.332832, 13.71640765, 0.00372851  ,     82.9569,        78.3246,          121.3819,     293.6365,            0.0, U                  ,      36519.0,          999.0,      77274.0, 0.00012852968 , 1.32e-06       , 0.0             , 2025-10-04 23:19:22, planet4589.org + Celestrak, 1 36519U 10017A   25277.51517421  .00000107  00000-0  10061-3 0  9991, 2 36519  82.9570  77.5732 0037322 118.6429 300.4751 13.71640831772882, COSMOS 2463                , YES
